[
    {
        "Altitude(m)": 611967.1487506764,
        "Argument of Periapsis(deg)": 0.0,
        "Eccentricity": 0.0,
        "Inclination(deg)": 60.0,
        "Latitude(deg)": 59.14007008848218,
        "Longitude(deg)": -48.90803096754416,
        "Mean Anomaly(deg)": -261.8182,
        "RAAN(deg)": 305.0,
        "Satellite Name": "Test1 1348",
        "Satellite Number": 1348,
        "Semi-Major Axis(m)": 6980739.136638005,
        "Time(s)": 0
    },
    {
        "Altitude(m)": 611934.3488776269,
        "Argument of Periapsis(deg)": 0.00010418945913296404,
        "Eccentricity": 0.0,
        "Inclination(deg)": 60.0,
        "Latitude(deg)": 58.986433329804974,
        "Longitude(deg)": -47.7847876550186,
        "Mean Anomaly(deg)": -261.1980938545382,
        "RAAN(deg)": 304.99957995086027,
        "Satellite Name": "Test1 1348",
        "Satellite Number": 1348,
        "Semi-Major Axis(m)": 6980739.136638005,
        "Time(s)": 10
    }
]